[Satellite]
VERSION=1.1
NAME=CIRIS
NICKNAME=CIRIS
TLE1=1 45121U 19071L   20061.53346812  .00000477  00000-0  26184-4 0  9995
TLE2=2 45121  51.6440 164.6292 0011878  26.9483 333.2113 15.33309219  4457
STATUS=0
